{
  "norad_id": 59405,
  "name": "STARLINK-31400",
  "history": [
    {
      "epoch": "2026-03-28T20:59:48.386112Z",
      "apogee_km": 483.84397001890466,
      "perigee_km": 482.2385915247705,
      "latitude_deg": -8.184589929986329e-06,
      "longitude_deg": 166.26643969191252,
      "height_km": 483.0003127735197,
      "semi_major_axis_km": 6861.178280771837,
      "eccentricity": 0.00011699,
      "inclination_deg": 43.0029,
      "raan_deg": 307.5071,
      "arg_perigee_deg": 256.8764,
      "mean_anomaly_deg": 103.1957,
      "mean_motion_rev_day": 15.2758261
    },
    {
      "epoch": "2026-03-29T00:08:07.013472Z",
      "apogee_km": 483.8131420460959,
      "perigee_km": 482.25840029614847,
      "latitude_deg": -4.71287244345766e-05,
      "longitude_deg": 118.32149019107419,
      "height_km": 482.97441014592715,
      "semi_major_axis_km": 6861.172771171122,
      "eccentricity": 0.0001133,
      "inclination_deg": 43.0027,
      "raan_deg": 306.7687,
      "arg_perigee_deg": 257.9791,
      "mean_anomaly_deg": 102.0933,
      "mean_motion_rev_day": 15.2758445
    },
    {
      "epoch": "2026-03-29T23:40:29.935776Z",
      "apogee_km": 484.1126317551589,
      "perigee_km": 482.0899387086729,
      "latitude_deg": 3.1153511689565854e-06,
      "longitude_deg": 118.7209935130438,
      "height_km": 482.92735079236746,
      "semi_major_axis_km": 6861.238285231916,
      "eccentricity": 0.0001474,
      "inclination_deg": 43.0042,
      "raan_deg": 301.2304,
      "arg_perigee_deg": 267.2319,
      "mean_anomaly_deg": 92.8364,
      "mean_motion_rev_day": 15.27562571
    },
    {
      "epoch": "2026-03-29T23:40:29.936640Z",
      "apogee_km": 484.11297481707425,
      "perigee_km": 482.0895956467584,
      "latitude_deg": 7.066252077809526e-06,
      "longitude_deg": 118.72099411594354,
      "height_km": 482.92736735552637,
      "semi_major_axis_km": 6861.238285231916,
      "eccentricity": 0.00014745,
      "inclination_deg": 43.0042,
      "raan_deg": 301.2304,
      "arg_perigee_deg": 267.2319,
      "mean_anomaly_deg": 92.8364,
      "mean_motion_rev_day": 15.27562571
    },
    {
      "epoch": "2026-03-30T15:22:03.168480Z",
      "apogee_km": 484.3094813632215,
      "perigee_km": 481.8040478481389,
      "latitude_deg": -2.0653707311122013e-05,
      "longitude_deg": -121.00357141341348,
      "height_km": 482.5939351960178,
      "semi_major_axis_km": 6861.19376460568,
      "eccentricity": 0.00018258,
      "inclination_deg": 43.0052,
      "raan_deg": 297.5388,
      "arg_perigee_deg": 281.0667,
      "mean_anomaly_deg": 78.9979,
      "mean_motion_rev_day": 15.27577439
    },
    {
      "epoch": "2026-03-30T21:38:40.112160Z",
      "apogee_km": 484.25948935619635,
      "perigee_km": 481.79290118749486,
      "latitude_deg": 2.0123279225317723e-05,
      "longitude_deg": 143.106856063097,
      "height_km": 482.82611571296724,
      "semi_major_axis_km": 6861.163195271845,
      "eccentricity": 0.00017975,
      "inclination_deg": 43.003,
      "raan_deg": 296.0609,
      "arg_perigee_deg": 268.9513,
      "mean_anomaly_deg": 91.1133,
      "mean_motion_rev_day": 15.27587648
    },
    {
      "epoch": "2026-03-30T23:12:49.501440Z",
      "apogee_km": 484.2629880477043,
      "perigee_km": 481.7861087287365,
      "latitude_deg": -3.3394709439730695e-05,
      "longitude_deg": 119.13342924413732,
      "height_km": 482.9012424933931,
      "semi_major_axis_km": 6861.161548388221,
      "eccentricity": 0.0001805,
      "inclination_deg": 43.0025,
      "raan_deg": 295.6911,
      "arg_perigee_deg": 265.3961,
      "mean_anomaly_deg": 94.6684,
      "mean_motion_rev_day": 15.27588198
    },
    {
      "epoch": "2026-04-01T19:09:11.742912Z",
      "apogee_km": 484.29651177761025,
      "perigee_km": 481.73867334550323,
      "latitude_deg": 1.851374177696507e-07,
      "longitude_deg": 167.89436306088047,
      "height_km": 483.179470543176,
      "semi_major_axis_km": 6861.1545925615565,
      "eccentricity": 0.0001864,
      "inclination_deg": 43.0019,
      "raan_deg": 285.3492,
      "arg_perigee_deg": 252.4935,
      "mean_anomaly_deg": 107.5713,
      "mean_motion_rev_day": 15.27590521
    },
    {
      "epoch": "2026-04-02T12:24:53.910432Z",
      "apogee_km": 484.3990674839388,
      "perigee_km": 481.5768123511525,
      "latitude_deg": 1.8803093284266748e-05,
      "longitude_deg": -95.79942784688772,
      "height_km": 482.59182724593717,
      "semi_major_axis_km": 6861.124939917546,
      "eccentricity": 0.00020567,
      "inclination_deg": 43.0028,
      "raan_deg": 281.29,
      "arg_perigee_deg": 277.0686,
      "mean_anomaly_deg": 82.9932,
      "mean_motion_rev_day": 15.27600424
    },
    {
      "epoch": "2026-04-02T20:15:41.104800Z",
      "apogee_km": 485.2371906611743,
      "perigee_km": 480.82422481491176,
      "latitude_deg": -2.7171119573476078e-05,
      "longitude_deg": 144.33223820225894,
      "height_km": 482.9858526252332,
      "semi_major_axis_km": 6861.167707738043,
      "eccentricity": 0.00032159,
      "inclination_deg": 43.0064,
      "raan_deg": 279.4406,
      "arg_perigee_deg": 265.4124,
      "mean_anomaly_deg": 94.636,
      "mean_motion_rev_day": 15.27586141
    },
    {
      "epoch": "2026-04-03T18:13:52.175424Z",
      "apogee_km": 484.4819684227605,
      "perigee_km": 481.51384146288365,
      "latitude_deg": -2.348151183740246e-06,
      "longitude_deg": 168.71527188329304,
      "height_km": 482.8385683911615,
      "semi_major_axis_km": 6861.134904942822,
      "eccentricity": 0.0002163,
      "inclination_deg": 43.0037,
      "raan_deg": 274.272,
      "arg_perigee_deg": 267.5682,
      "mean_anomaly_deg": 92.4922,
      "mean_motion_rev_day": 15.27597096
    },
    {
      "epoch": "2026-04-04T19:20:23.366400Z",
      "apogee_km": 484.01378724304595,
      "perigee_km": 482.1393037024227,
      "latitude_deg": -3.387357052424554e-05,
      "longitude_deg": 145.14649888448298,
      "height_km": 483.0469735540005,
      "semi_major_axis_km": 6861.213545472734,
      "eccentricity": 0.0001366,
      "inclination_deg": 43.0011,
      "raan_deg": 268.3644,
      "arg_perigee_deg": 258.074,
      "mean_anomaly_deg": 101.9958,
      "mean_motion_rev_day": 15.27570833
    },
    {
      "epoch": "2026-04-05T12:36:07.142688Z",
      "apogee_km": 484.00276911121273,
      "perigee_km": 482.1741153063558,
      "latitude_deg": -3.85445068974541e-06,
      "longitude_deg": -118.55720315185613,
      "height_km": 483.14078841931286,
      "semi_major_axis_km": 6861.225442208784,
      "eccentricity": 0.00013326,
      "inclination_deg": 43.0004,
      "raan_deg": 264.302,
      "arg_perigee_deg": 252.4473,
      "mean_anomaly_deg": 107.6233,
      "mean_motion_rev_day": 15.2756686
    },
    {
      "epoch": "2026-04-05T18:52:45.448896Z",
      "apogee_km": 484.0002429720298,
      "perigee_km": 482.18613371023275,
      "latitude_deg": 2.1962259292980378e-05,
      "longitude_deg": 145.54691486040846,
      "height_km": 483.2014479096737,
      "semi_major_axis_km": 6861.230188341131,
      "eccentricity": 0.0001322,
      "inclination_deg": 43.0022,
      "raan_deg": 262.8235,
      "arg_perigee_deg": 248.5634,
      "mean_anomaly_deg": 111.5077,
      "mean_motion_rev_day": 15.27565275
    },
    {
      "epoch": "2026-04-05T18:52:45.449760Z",
      "apogee_km": 484.00003713512524,
      "perigee_km": 482.18633954713823,
      "latitude_deg": 1.976788956370064e-05,
      "longitude_deg": 145.54690891055907,
      "height_km": 483.2013726924283,
      "semi_major_axis_km": 6861.230188341131,
      "eccentricity": 0.00013217,
      "inclination_deg": 43.0022,
      "raan_deg": 262.8235,
      "arg_perigee_deg": 248.5634,
      "mean_anomaly_deg": 111.5077,
      "mean_motion_rev_day": 15.27565275
    },
    {
      "epoch": "2026-04-07T03:50:01.910976Z",
      "apogee_km": 483.562170791296,
      "perigee_km": 482.5725106771879,
      "latitude_deg": -2.0668108404929025e-05,
      "longitude_deg": 2.1207778543653455,
      "height_km": 483.13002746330227,
      "semi_major_axis_km": 6861.204340734242,
      "eccentricity": 7.212e-05,
      "inclination_deg": 43.0012,
      "raan_deg": 255.0694,
      "arg_perigee_deg": 234.6056,
      "mean_anomaly_deg": 125.4728,
      "mean_motion_rev_day": 15.27573907
    },
    {
      "epoch": "2026-04-07T19:31:35.573952Z",
      "apogee_km": 483.87174934864106,
      "perigee_km": 482.25113427668566,
      "latitude_deg": 4.776304056704731e-06,
      "longitude_deg": 122.39536503297516,
      "height_km": 482.9964974881973,
      "semi_major_axis_km": 6861.198441812663,
      "eccentricity": 0.0001181,
      "inclination_deg": 43.0017,
      "raan_deg": 251.3787,
      "arg_perigee_deg": 258.7278,
      "mean_anomaly_deg": 101.3441,
      "mean_motion_rev_day": 15.27575877
    },
    {
      "epoch": "2026-04-08T09:39:00.422208Z",
      "apogee_km": 483.9526888957598,
      "perigee_km": 482.1385922055979,
      "latitude_deg": 2.4980537174174016e-05,
      "longitude_deg": -93.35908397638867,
      "height_km": 482.74753969198855,
      "semi_major_axis_km": 6861.182640550679,
      "eccentricity": 0.0001322,
      "inclination_deg": 43.0017,
      "raan_deg": 248.0578,
      "arg_perigee_deg": 274.7386,
      "mean_anomaly_deg": 85.3315,
      "mean_motion_rev_day": 15.27581154
    },
    {
      "epoch": "2026-04-09T17:02:07.391328Z",
      "apogee_km": 484.0146731322802,
      "perigee_km": 482.0770750886313,
      "latitude_deg": -1.4960286827261044e-06,
      "longitude_deg": 147.18539867332916,
      "height_km": 482.8686167823437,
      "semi_major_axis_km": 6861.1828741104555,
      "eccentricity": 0.0001412,
      "inclination_deg": 43.0025,
      "raan_deg": 240.6703,
      "arg_perigee_deg": 267.2927,
      "mean_anomaly_deg": 92.7763,
      "mean_motion_rev_day": 15.27581076
    }
  ]
}